{
  "type": "FeatureCollection",
  "features": [
    {
      "type": "Feature",
      "properties": {
        "norad_id": 57400,
        "name": "TIANMU-1 08",
        "group": "weather",
        "lat": -43.303717696451855,
        "lon": -160.59843908995944,
        "alt_km": 490.8903474987401,
        "timestamp": "2025-12-02T10:50:46.915719+00:00",
        "meta_object_name": "TIANMU-1 08",
        "meta_object_id": "2023-101B",
        "meta_epoch": "2025-12-02T03:35:00.718368",
        "meta_mean_motion": 15.27814278,
        "meta_eccentricity": 0.0007433,
        "meta_inclination": 97.2888,
        "meta_ra_of_asc_node": 26.0342,
        "meta_arg_of_pericenter": 113.6615,
        "meta_mean_anomaly": 246.5405,
        "meta_ephemeris_type": 0,
        "meta_classification_type": "U",
        "meta_norad_cat_id": 57400,
        "meta_element_set_no": 999,
        "meta_rev_at_epoch": 13153,
        "meta_bstar": 0.00033553,
        "meta_mean_motion_dot": 9.05e-05,
        "meta_mean_motion_ddot": 0,
        "tle_line1": "1 57400U 23101B   25336.14931387  .00009050  00000+0  33553-3 0  9993",
        "tle_line2": "2 57400  97.2888  26.0342 0007433 113.6615 246.5405 15.27814278131531"
      },
      "geometry": {
        "type": "Point",
        "coordinates": [
          -160.59843908995944,
          -43.303717696451855
        ]
      }
    },
    {
      "type": "Feature",
      "properties": {
        "norad_id": 57401,
        "name": "TIANMU-1 09",
        "group": "weather",
        "lat": -63.82731326249708,
        "lon": 40.93531676517347,
        "alt_km": 494.0988431637743,
        "timestamp": "2025-12-02T10:50:46.915729+00:00",
        "meta_object_name": "TIANMU-1 09",
        "meta_object_id": "2023-101C",
        "meta_epoch": "2025-12-02T04:50:32.680896",
        "meta_mean_motion": 15.27837071,
        "meta_eccentricity": 0.0006706,
        "meta_inclination": 97.2844,
        "meta_ra_of_asc_node": 25.6046,
        "meta_arg_of_pericenter": 112.6109,
        "meta_mean_anomaly": 247.584,
        "meta_ephemeris_type": 0,
        "meta_classification_type": "U",
        "meta_norad_cat_id": 57401,
        "meta_element_set_no": 999,
        "meta_rev_at_epoch": 13154,
        "meta_bstar": 0.00034323,
        "meta_mean_motion_dot": 9.265e-05,
        "meta_mean_motion_ddot": 0,
        "tle_line1": "1 57401U 23101C   25336.20176714  .00009265  00000+0  34323-3 0  9990",
        "tle_line2": "2 57401  97.2844  25.6046 0006706 112.6109 247.5840 15.27837071131540"
      },
      "geometry": {
        "type": "Point",
        "coordinates": [
          40.93531676517347,
          -63.82731326249708
        ]
      }
    },
    {
      "type": "Feature",
      "properties": {
        "norad_id": 57402,
        "name": "TIANMU-1 10",
        "group": "weather",
        "lat": 71.03380030695558,
        "lon": -131.4339864449176,
        "alt_km": 469.68712999090076,
        "timestamp": "2025-12-02T10:50:46.915739+00:00",
        "meta_object_name": "TIANMU-1 10",
        "meta_object_id": "2023-101D",
        "meta_epoch": "2025-12-02T04:05:25.100160",
        "meta_mean_motion": 15.27826489,
        "meta_eccentricity": 0.0008448,
        "meta_inclination": 97.2926,
        "meta_ra_of_asc_node": 26.4126,
        "meta_arg_of_pericenter": 113.9986,
        "meta_mean_anomaly": 246.2139,
        "meta_ephemeris_type": 0,
        "meta_classification_type": "U",
        "meta_norad_cat_id": 57402,
        "meta_element_set_no": 999,
        "meta_rev_at_epoch": 13153,
        "meta_bstar": 0.00035101,
        "meta_mean_motion_dot": 9.477e-05,
        "meta_mean_motion_ddot": 0,
        "tle_line1": "1 57402U 23101D   25336.17042940  .00009477  00000+0  35101-3 0  9990",
        "tle_line2": "2 57402  97.2926  26.4126 0008448 113.9986 246.2139 15.27826489131539"
      },
      "geometry": {
        "type": "Point",
        "coordinates": [
          -131.4339864449176,
          71.03380030695558
        ]
      }
    },
    {
      "type": "Feature",
      "properties": {
        "norad_id": 57490,
        "name": "FENGYUN 3F",
        "group": "weather",
        "lat": 41.95122495616486,
        "lon": 36.99078654867882,
        "alt_km": 821.890347299106,
        "timestamp": "2025-12-02T10:50:46.915753+00:00",
        "meta_object_name": "FENGYUN 3F",
        "meta_object_id": "2023-111A",
        "meta_epoch": "2025-12-02T03:52:54.221952",
        "meta_mean_motion": 14.198889,
        "meta_eccentricity": 7.08e-05,
        "meta_inclination": 98.7097,
        "meta_ra_of_asc_node": 44.6252,
        "meta_arg_of_pericenter": 84.0509,
        "meta_mean_anomaly": 276.0748,
        "meta_ephemeris_type": 0,
        "meta_classification_type": "U",
        "meta_norad_cat_id": 57490,
        "meta_element_set_no": 999,
        "meta_rev_at_epoch": 12090,
        "meta_bstar": 7.0161e-05,
        "meta_mean_motion_dot": 1.05e-06,
        "meta_mean_motion_ddot": 0,
        "tle_line1": "1 57490U 23111A   25336.16173868  .00000105  00000+0  70161-4 0  9996",
        "tle_line2": "2 57490  98.7097  44.6252 0000708  84.0509 276.0748 14.19888900120905"
      },
      "geometry": {
        "type": "Point",
        "coordinates": [
          36.99078654867882,
          41.95122495616486
        ]
      }
    },
    {
      "type": "Feature",
      "properties": {
        "norad_id": 58584,
        "name": "ARKTIKA-M 2",
        "group": "weather",
        "lat": 50.47746168700066,
        "lon": -146.23772475165958,
        "alt_km": 29103.351511342324,
        "timestamp": "2025-12-02T10:50:46.915765+00:00",
        "meta_object_name": "ARKTIKA-M 2",
        "meta_object_id": "2023-198A",
        "meta_epoch": "2025-12-01T08:43:04.634112",
        "meta_mean_motion": 2.00605427,
        "meta_eccentricity": 0.6864029,
        "meta_inclination": 63.2218,
        "meta_ra_of_asc_node": 176.1298,
        "meta_arg_of_pericenter": 268.1507,
        "meta_mean_anomaly": 18.8441,
        "meta_ephemeris_type": 0,
        "meta_classification_type": "U",
        "meta_norad_cat_id": 58584,
        "meta_element_set_no": 999,
        "meta_rev_at_epoch": 1435,
        "meta_bstar": 0,
        "meta_mean_motion_dot": 2.37e-06,
        "meta_mean_motion_ddot": 0,
        "tle_line1": "1 58584U 23198A   25335.36324808  .00000237  00000+0  00000+0 0  9995",
        "tle_line2": "2 58584  63.2218 176.1298 6864029 268.1507  18.8441  2.00605427 14357"
      },
      "geometry": {
        "type": "Point",
        "coordinates": [
          -146.23772475165958,
          50.47746168700066
        ]
      }
    },
    {
      "type": "Feature",
      "properties": {
        "norad_id": 58645,
        "name": "TIANMU-1 11",
        "group": "weather",
        "lat": 53.71257430036077,
        "lon": -13.884077867259549,
        "alt_km": 484.85636995587447,
        "timestamp": "2025-12-02T10:50:46.915777+00:00",
        "meta_object_name": "TIANMU-1 11",
        "meta_object_id": "2023-205A",
        "meta_epoch": "2025-12-02T04:18:26.728128",
        "meta_mean_motion": 15.24395946,
        "meta_eccentricity": 0.0008994,
        "meta_inclination": 97.3617,
        "meta_ra_of_asc_node": 355.9901,
        "meta_arg_of_pericenter": 351.4606,
        "meta_mean_anomaly": 8.6477,
        "meta_ephemeris_type": 0,
        "meta_classification_type": "U",
        "meta_norad_cat_id": 58645,
        "meta_element_set_no": 999,
        "meta_rev_at_epoch": 10748,
        "meta_bstar": 0.00028899,
        "meta_mean_motion_dot": 7.02e-05,
        "meta_mean_motion_ddot": 0,
        "tle_line1": "1 58645U 23205A   25336.17947602  .00007020  00000+0  28899-3 0  9992",
        "tle_line2": "2 58645  97.3617 355.9901 0008994 351.4606   8.6477 15.24395946107480"
      },
      "geometry": {
        "type": "Point",
        "coordinates": [
          -13.884077867259549,
          53.71257430036077
        ]
      }
    },
    {
      "type": "Feature",
      "properties": {
        "norad_id": 58646,
        "name": "TIANMU-1 12",
        "group": "weather",
        "lat": -82.6311256782156,
        "lon": 84.34854343822875,
        "alt_km": 498.34475534793273,
        "timestamp": "2025-12-02T10:50:46.915787+00:00",
        "meta_object_name": "TIANMU-1 12",
        "meta_object_id": "2023-205B",
        "meta_epoch": "2025-12-02T03:21:42.839424",
        "meta_mean_motion": 15.24307306,
        "meta_eccentricity": 0.000678,
        "meta_inclination": 97.3605,
        "meta_ra_of_asc_node": 355.7604,
        "meta_arg_of_pericenter": 337.5719,
        "meta_mean_anomaly": 22.5221,
        "meta_ephemeris_type": 0,
        "meta_classification_type": "U",
        "meta_norad_cat_id": 58646,
        "meta_element_set_no": 999,
        "meta_rev_at_epoch": 10746,
        "meta_bstar": 0.00032909,
        "meta_mean_motion_dot": 7.98e-05,
        "meta_mean_motion_ddot": 0,
        "tle_line1": "1 58646U 23205B   25336.14007916  .00007980  00000+0  32909-3 0  9997",
        "tle_line2": "2 58646  97.3605 355.7604 0006780 337.5719  22.5221 15.24307306107460"
      },
      "geometry": {
        "type": "Point",
        "coordinates": [
          84.34854343822875,
          -82.6311256782156
        ]
      }
    }
  ]
}